{"version": 0.6, "generator": "Overpass API 0.7.62.7 375dc00a", "osm3s": {"timestamp_osm_base": "2025-07-24T08:24:11Z", "copyright": "The data included in this document is from www.openstreetmap.org. The data is made available under ODbL."}, "elements": [{"type": "node", "id": 5550688285, "lat": 53.7592822, "lon": -1.6334116, "tags": {"addr:city": "Leeds", "addr:housename": "St Peters Church Centre", "addr:postcode": "LS27 7AF", "addr:street": "Church Street", "addr:suburb": "Gildersome", "amenity": "social_facility", "fhrs:id": "709110", "name": "South Leeds Food Bank", "social_facility": "food_bank"}}, {"type": "node", "id": 5995619996, "lat": 53.9008245, "lon": -1.7089883, "tags": {"addr:city": "Otley", "addr:housename": "Spring Gardens Aged Persons Home", "addr:postcode": "LS21 3LJ", "addr:street": "Westbourne Grove", "amenity": "social_facility", "fhrs:id": "639168", "name": "Otley Food Bank", "social_facility": "food_bank"}}, {"type": "node", "id": 6010342753, "lat": 53.8274633, "lon": -1.4697849}, {"type": "node", "id": 6010342754, "lat": 53.8274054, "lon": -1.4697909}, {"type": "node", "id": 6010342755, "lat": 53.8274014, "lon": -1.4696802}, {"type": "node", "id": 6046838150, "lat": 53.9315124, "lon": -1.3885112, "tags": {"addr:city": "Wetherby", "addr:housename": "Barleyfields Youth Centre", "addr:postcode": "LS22 6PN", "addr:street": "Barleyfields Lane", "amenity": "social_facility", "fhrs:id": "780859", "name": "Wetherby And District Foodbank", "social_facility": "food_bank"}}, {"type": "node", "id": 6581910185, "lat": 53.8576683, "lon": -1.6884345, "tags": {"addr:city": "Leeds", "addr:housename": "Trinity Church", "addr:postcode": "LS19 6HN", "addr:street": "New Road Side", "addr:suburb": "Rawdon", "amenity": "social_facility", "fhrs:id": "1069788", "name": "Trinity Foodbank Centre", "social_facility": "food_bank"}}, {"type": "node", "id": 6593380716, "lat": 53.8274374, "lon": -1.4696765}, {"type": "node", "id": 6593380717, "lat": 53.8274597, "lon": -1.4696741}, {"type": "node", "id": 6708038051, "lat": 53.8089555, "lon": -1.5097591, "tags": {"addr:city": "Leeds", "addr:housename": "The Compton Centre", "addr:housenumber": "322", "addr:postcode": "LS9 7BG", "addr:street": "Harehills Lane", "amenity": "social_facility", "fhrs:id": "1101679", "name": "Happy Holidays (Hunger Scheme)", "social_facility": "food_bank"}}, {"type": "node", "id": 6724415565, "lat": 53.7971229, "lon": -1.5879214, "tags": {"addr:city": "Leeds", "addr:housename": "Armley Library", "addr:postcode": "LS12 1UQ", "addr:street": "Stocks Hill", "addr:suburb": "Armley", "amenity": "social_facility", "fhrs:id": "1091953", "name": "Happy Holidays (Hunger Scheme)", "social_facility": "food_bank"}}, {"type": "node", "id": 6900095789, "lat": 53.8127231, "lon": -1.6285113, "tags": {"addr:city": "Leeds", "addr:housename": "Trinity Church Hall", "addr:postcode": "LS13 2EP", "addr:street": "Town Street", "addr:suburb": "Bramley", "amenity": "social_facility", "fhrs:id": "1018092", "name": "Leeds North And West Foodbank", "social_facility": "food_bank"}}, {"type": "node", "id": 6990078531, "lat": 53.7833362, "lon": -1.6032368, "tags": {"addr:city": "Leeds", "addr:housename": "United Methodist Church", "addr:postcode": "LS12 4RN", "addr:street": "Branch Road", "addr:suburb": "Farnley", "amenity": "social_facility", "fhrs:id": "1018126", "name": "Leeds North And West Food Bank", "social_facility": "food_bank"}}, {"type": "node", "id": 7518646549, "lat": 53.8467166, "lon": -1.6345596, "tags": {"addr:city": "Leeds", "addr:housename": "Lister Hill Baptist Church", "addr:housenumber": "1", "addr:postcode": "LS18 5PW", "addr:street": "Brownberrie Avenue", "addr:suburb": "Horsforth", "amenity": "social_facility", "fhrs:id": "1018093", "name": "Leeds North And West Foodbank", "social_facility": "food_bank"}}, {"type": "node", "id": 9035514093, "lat": 53.8274488, "lon": -1.4696753, "tags": {"entrance": "yes"}}, {"type": "node", "id": 9063321049, "lat": 53.7710857, "lon": -1.5422926, "tags": {"amenity": "social_facility", "name": "Leeds South & East Food Bank", "social_facility": "food_bank"}}, {"type": "node", "id": 9839237698, "lat": 53.8052798, "lon": -1.5105677, "tags": {"alt_name": "SToP", "amenity": "social_facility", "name": "Surplus To Purpose", "old_name": "TRJFP", "shop": "wholesale", "social_facility": "food_bank"}}, {"type": "way", "id": 976375569, "nodes": [6593380717, 9035514093, 6593380716, 6010342755, 6010342754, 6010342753, 6593380717], "tags": {"amenity": "social_facility", "cafe_type": "community_cafe", "indoor": "room", "level": "-1", "name": "Community Cafe", "note": "they are: \n-Leeds South/East Food bank which you need to be referred/ have a voucher. (Tues 12:30 to 2:30 pm)\n-A Food paneity open to everyone.\n-Olive Branch Community Caf\u00e9 all in the same room possibly with the same supply of food (Tues 9:30 to 11:30 pm)", "opening_hours": "Tu 09:30-11:30,12:30-14:30; We-Mo closed", "social_facility": "food_bank", "social_facility:for": "all"}}]}